*******************************************************************************
Ephemeris / WWW_USER Tue Mar 27 22:44:34 2018 Pasadena, USA      / Horizons    
*******************************************************************************
Target body name: Earth (399)                     {source: DE431mx}
Center body name: Earth-Moon Barycenter (3)       {source: DE431mx}
Center-site name: BODY CENTER
*******************************************************************************
Start time      : A.D. 2000-Jan-01 00:00:00.0000 TDB
Stop  time      : A.D. 2005-Jan-01 00:00:00.0000 TDB
Step-size       : 7200 minutes
*******************************************************************************
Center geodetic : 0.00000000,0.00000000,0.0000000 {E-lon(deg),Lat(deg),Alt(km)}
Center cylindric: 0.00000000,0.00000000,0.0000000 {E-lon(deg),Dxy(km),Dz(km)}
Center radii    : (undefined)                                                  
Output units    : AU-D                                                         
Output type     : GEOMETRIC cartesian states
Output format   : 2 (position and velocity)
Reference frame : ICRF/J2000.0                                                 
Coordinate systm: Ecliptic and Mean Equinox of Reference Epoch                 
*******************************************************************************
JDTDB
   X     Y     Z
   VX    VY    VZ
*******************************************************************************
$$SOE
2451964.500000000 = A.D. 2001-Feb-24 00:00:00.0000 TDB 
  -3.115048821931992E-05  9.764242176573012E-06  2.479782480355915E-06
  -1.879797049657324E-06 -6.608710933417960E-06  3.089830312606765E-07
2451969.500000000 = A.D. 2001-Mar-01 00:00:00.0000 TDB 
  -2.220901014924166E-05 -2.212505729902071E-05  2.391221625676923E-06
   5.240141796251852E-06 -4.791606878632292E-06 -3.537956581960146E-07
2451974.500000000 = A.D. 2001-Mar-06 00:00:00.0000 TDB 
   1.182888201844615E-05 -2.711151920380430E-05 -4.578014736194411E-07
   6.781628527698028E-06  3.278585799529872E-06 -6.557024998863304E-07
2451979.500000000 = A.D. 2001-Mar-11 00:00:00.0000 TDB 
   2.929434185212648E-05  4.159158277919500E-06 -2.603794059985498E-06
  -7.211731446165690E-07  7.526594908111367E-06 -8.732806513001680E-08
2451984.500000000 = A.D. 2001-Mar-16 00:00:00.0000 TDB 
   7.913197154189264E-06  3.097345244103378E-05 -1.277427554811835E-06
  -6.614915694777513E-06  2.135755602309307E-06  5.320550887029676E-07
2451989.500000000 = A.D. 2001-Mar-21 00:00:00.0000 TDB 
  -2.341327378774891E-05  2.309020402632075E-05  1.581697920142635E-06
  -4.713688394023473E-06 -4.875817394688602E-06  4.978456365555813E-07
2451994.500000000 = A.D. 2001-Mar-26 00:00:00.0000 TDB 
  -3.061456137958087E-05 -8.934416396941836E-06  2.779972445776764E-06
   2.215841390094476E-06 -6.675691552462229E-06 -7.472357840365755E-08
2451999.500000000 = A.D. 2001-Mar-31 00:00:00.0000 TDB 
  -4.371854493628989E-06 -3.030055741219544E-05  8.756429310260903E-07
   7.227029510394878E-06 -7.802759736169582E-07 -6.128818003819874E-07
2452004.500000000 = A.D. 2001-Apr-05 00:00:00.0000 TDB 
   2.623934416500546E-05 -1.363044578040632E-05 -2.046350180342151E-06
   3.417022927157091E-06  6.727955557660937E-06 -4.034832712127837E-07
2452009.500000000 = A.D. 2001-Apr-10 00:00:00.0000 TDB 
   2.185517512183656E-05  2.142180116555882E-05 -2.209600154627509E-06
  -4.800171922039851E-06  5.524034863729704E-06  3.339440546279098E-07
2452014.500000000 = A.D. 2001-Apr-15 00:00:00.0000 TDB 
  -1.006604997084546E-05  3.099605244160944E-05  4.311481276944362E-07
  -6.542494126671046E-06 -1.890593907023717E-06  5.994777213261178E-07
2452019.500000000 = A.D. 2001-Apr-20 00:00:00.0000 TDB 
  -3.163682333561656E-05  6.994007360585910E-06  2.659655347524222E-06
  -1.242429337477502E-06 -6.777722197319716E-06  2.031143386157171E-07
2452024.500000000 = A.D. 2001-Apr-25 00:00:00.0000 TDB 
  -1.929015211398614E-05 -2.422539040398908E-05  1.997330233881885E-06
   5.813374006749312E-06 -4.310107951138222E-06 -4.548244610838936E-07
2452029.500000000 = A.D. 2001-Apr-30 00:00:00.0000 TDB 
   1.519033861423552E-05 -2.597335783386190E-05 -1.019528517178817E-06
   6.322931487054290E-06  3.826564977012524E-06 -6.071432309505499E-07
2452034.500000000 = A.D. 2001-May-05 00:00:00.0000 TDB 
   2.952840374144269E-05  5.896850345204700E-06 -2.681095899031834E-06
  -1.286588590482216E-06  7.311578295464914E-06  2.584328911677391E-08
2452039.500000000 = A.D. 2001-May-10 00:00:00.0000 TDB 
   6.123392772219174E-06  3.110724179332023E-05 -8.958061116635433E-07
  -6.845088286016694E-06  1.729841011175993E-06  5.912099068969770E-07
2452044.500000000 = A.D. 2001-May-15 00:00:00.0000 TDB 
  -2.494892644120704E-05  2.123760516619262E-05  1.999988872479570E-06
  -4.372111859255867E-06 -5.168562982724747E-06  4.515386754229505E-07
2452049.500000000 = A.D. 2001-May-20 00:00:00.0000 TDB 
  -2.957882760219737E-05 -1.109000412366426E-05  2.778976220303465E-06
   2.823851897678288E-06 -6.485609379861560E-06 -1.827068477464140E-07
2452054.500000000 = A.D. 2001-May-25 00:00:00.0000 TDB 
  -8.516548805375644E-07 -3.007366888368996E-05  3.912158020015420E-07
   7.434439679553805E-06 -4.282159113133967E-08 -6.725604014144684E-07
2452059.500000000 = A.D. 2001-May-30 00:00:00.0000 TDB 
   2.812715235465301E-05 -1.043303979082410E-05 -2.445915007616272E-06
   2.682770379311514E-06  6.906693852258648E-06 -3.169868694124004E-07
2452064.500000000 = A.D. 2001-Jun-04 00:00:00.0000 TDB 
   2.060372409375986E-05  2.326932914869380E-05 -2.114685349736247E-06
  -5.190246368144358E-06  4.996575302319280E-06  4.210941047796854E-07
2452069.500000000 = A.D. 2001-Jun-09 00:00:00.0000 TDB 
  -1.206583525423110E-05  3.019739617110461E-05  7.976209582921112E-07
  -6.454391596254213E-06 -2.360850899451474E-06  6.151001964314600E-07
2452074.500000000 = A.D. 2001-Jun-14 00:00:00.0000 TDB 
  -3.213386795877598E-05  4.869237309437794E-06  2.898114028937064E-06
  -7.944057112325786E-07 -6.780378315215430E-06  1.429868060783436E-07
2452079.500000000 = A.D. 2001-Jun-19 00:00:00.0000 TDB 
  -1.757065157409856E-05 -2.510447288879236E-05  1.870144221952117E-06
   6.202451108812755E-06 -3.838787419805198E-06 -5.302597490713410E-07
2452084.500000000 = A.D. 2001-Jun-24 00:00:00.0000 TDB 
   1.764253467905237E-05 -2.360082865483459E-05 -1.381518344162720E-06
   6.068167461608886E-06  4.532311482015970E-06 -6.044023722059378E-07
2452089.500000000 = A.D. 2001-Jun-29 00:00:00.0000 TDB 
   2.892487280728837E-05  9.616641862807737E-06 -2.759114178032599E-06
  -1.987100291689624E-06  7.020259024780674E-06  1.109368710718056E-07
2452094.500000000 = A.D. 2001-Jul-04 00:00:00.0000 TDB 
   3.585224921637721E-06  3.188550548067105E-05 -6.568939420420346E-07
  -6.903256139163368E-06  1.047180434437740E-06  6.238095815523437E-07
2452099.500000000 = A.D. 2001-Jul-09 00:00:00.0000 TDB 
  -2.658490546818511E-05  1.930661181411087E-05  2.241962996257533E-06
  -3.998103044364198E-06 -5.493279745205725E-06  4.224944737779364E-07
2452104.500000000 = A.D. 2001-Jul-14 00:00:00.0000 TDB 
  -2.913651196898994E-05 -1.304202271574775E-05  2.801480884989310E-06
   3.180818028215893E-06 -6.186415982644032E-06 -2.296635754626598E-07
2452109.500000000 = A.D. 2001-Jul-19 00:00:00.0000 TDB 
   6.307595157447904E-07 -2.973046350881597E-05  2.428716863890493E-07
   7.496363440990146E-06  5.327363867804843E-07 -6.908225132656901E-07
2452114.500000000 = A.D. 2001-Jul-24 00:00:00.0000 TDB 
   2.847155112858539E-05 -7.178312130677987E-06 -2.521883396197896E-06
   2.099249134186456E-06  7.294542032052397E-06 -2.626516333343790E-07
2452119.500000000 = A.D. 2001-Jul-29 00:00:00.0000 TDB 
   1.785926773799921E-05  2.577374902179989E-05 -1.874735343013277E-06
  -5.588102435175851E-06  4.374935745499114E-06  4.663619170725041E-07
2452124.500000000 = A.D. 2001-Aug-03 00:00:00.0000 TDB 
  -1.489153728972673E-05  2.917353792441665E-05  1.064323247150606E-06
  -6.151337656650621E-06 -2.990844684300133E-06  5.846525921653719E-07
2452129.500000000 = A.D. 2001-Aug-08 00:00:00.0000 TDB 
  -3.266033633150624E-05  2.027821290808835E-06  2.915078797885061E-06
  -2.729117637177387E-07 -6.813893106139928E-06  8.454195709144771E-08
2452134.500000000 = A.D. 2001-Aug-13 00:00:00.0000 TDB 
  -1.635786037621263E-05 -2.653399017821781E-05  1.693827415676258E-06
   6.295926402014579E-06 -3.348732004229662E-06 -5.377940023762106E-07
2452139.500000000 = A.D. 2001-Aug-18 00:00:00.0000 TDB 
   1.835025205108803E-05 -2.257679378724048E-05 -1.450523593186871E-06
   5.817542792839654E-06  5.013189014487274E-06 -5.607861239370191E-07
2452144.500000000 = A.D. 2001-Aug-23 00:00:00.0000 TDB 
   2.726775431356909E-05  1.223507196132439E-05 -2.517031277995447E-06
  -2.618041379637325E-06  6.982835306273399E-06  1.815441789707101E-07
2452149.500000000 = A.D. 2001-Aug-28 00:00:00.0000 TDB 
   2.407334648316778E-08  3.221612758016004E-05 -2.347160873654498E-07
  -6.897927214117817E-06  3.407795398741481E-07  6.114028782651768E-07
2452154.500000000 = A.D. 2001-Sep-02 00:00:00.0000 TDB 
  -2.842192532106078E-05  1.660288075817211E-05  2.392336746542555E-06
  -3.412068803165201E-06 -5.892396620069653E-06  3.388312196540263E-07
2452159.500000000 = A.D. 2001-Sep-07 00:00:00.0000 TDB 
  -2.796120965273542E-05 -1.602669489599942E-05  2.540436152770781E-06
   3.656794604244396E-06 -5.879553999034011E-06 -2.917576586964331E-07
2452164.500000000 = A.D. 2001-Sep-12 00:00:00.0000 TDB 
   2.358701089719952E-06 -3.030006911343035E-05 -6.406506534704263E-08
   7.249977355748578E-06  1.012177382657197E-06 -6.444830127495755E-07
2452169.500000000 = A.D. 2001-Sep-17 00:00:00.0000 TDB 
   2.835245867301451E-05 -6.059373484436801E-06 -2.458164389142147E-06
   1.648454491803970E-06  7.531574796716804E-06 -1.748109625763643E-07
